<?xml version="1.0" encoding="UTF-8"?>
<kml xmlns="http://www.opengis.net/kml/2.2"><Document><name>Nora Switzerland Route</name>
<Placemark><name>Geneva</name><description>Geneva, Switzerland</description><Point><coordinates></coordinates></Point></Placemark><Placemark><name>Spiez Castle</name><description>Schloss Spiez, Switzerland</description><Point><coordinates></coordinates></Point></Placemark><Placemark><name>Eiger Lodge Grindelwald</name><description>Eiger Lodge Grindelwald, Switzerland</description><Point><coordinates></coordinates></Point></Placemark><Placemark><name>Grindelwald First</name><description>Grindelwald First, Switzerland</description><Point><coordinates></coordinates></Point></Placemark><Placemark><name>Bachalpsee</name><description>Bachalpsee, Switzerland</description><Point><coordinates></coordinates></Point></Placemark><Placemark><name>Skywings Paragliding</name><description>Skywings Paragliding Interlaken, Switzerland</description><Point><coordinates></coordinates></Point></Placemark><Placemark><name>Staubbach Falls</name><description>Staubbach Falls, Lauterbrunnen, Switzerland</description><Point><coordinates></coordinates></Point></Placemark><Placemark><name>Mannlichen</name><description>Männlichen, Switzerland</description><Point><coordinates></coordinates></Point></Placemark><Placemark><name>Kleine Scheidegg</name><description>Kleine Scheidegg, Switzerland</description><Point><coordinates></coordinates></Point></Placemark><Placemark><name>Iseltwald Pier</name><description>Iseltwald Pier, Switzerland</description><Point><coordinates></coordinates></Point></Placemark><Placemark><name>Chapel Bridge</name><description>Kapellbrücke Luzern, Switzerland</description><Point><coordinates></coordinates></Point></Placemark><Placemark><name>Stoos</name><description>Stoos, Switzerland</description><Point><coordinates></coordinates></Point></Placemark><Placemark><name>Fronalpstock</name><description>Fronalpstock, Switzerland</description><Point><coordinates></coordinates></Point></Placemark><Placemark><name>Schwyz Bahnhof</name><description>Schwyz Bahnhof, Switzerland</description><Point><coordinates></coordinates></Point></Placemark><Placemark><name>Milano Centrale</name><description>Milano Centrale, Italy</description><Point><coordinates></coordinates></Point></Placemark></Document></kml>